[Satellite]
VERSION=1.1
NAME=ABS-7 (KOREASAT 3)
NICKNAME=ABS-7 (KOREASAT 3)
TLE1=1 25894U 99046A   15052.77487563 -.00000386  00000-0  10000-3 0  9998
TLE2=2 25894   0.0151 169.4578 0001665 197.3282 179.5748  1.00268837 55711
